{
  "type": "FeatureCollection",
  "features": [
    {
      "type": "Feature",
      "properties": {
        "norad_id": 38091,
        "name": "BEIDOU-2 G5 (C05)",
        "group": "gnss",
        "lat": 0.09349909291261754,
        "lon": -111.4230255512094,
        "alt_km": 35751.05051833569,
        "timestamp": "2025-12-15T07:02:37.860829+00:00",
        "meta_object_name": "BEIDOU-2 G5 (C05)",
        "meta_object_id": "2012-008A",
        "meta_epoch": "2025-12-14T22:15:32.898240",
        "meta_mean_motion": 1.00276646,
        "meta_eccentricity": 0.00125198,
        "meta_inclination": 3.1149,
        "meta_ra_of_asc_node": 70.7041,
        "meta_arg_of_pericenter": 228.6209,
        "meta_mean_anomaly": 177.2276,
        "meta_ephemeris_type": 0,
        "meta_classification_type": "U",
        "meta_norad_cat_id": 38091,
        "meta_element_set_no": 999,
        "meta_rev_at_epoch": 5052,
        "meta_bstar": 0,
        "meta_mean_motion_dot": 7.4e-07,
        "meta_mean_motion_ddot": 0,
        "tle_line1": "1 38091U 12008A   25348.92746410  .00000074  00000+0  00000+0 0  9996",
        "tle_line2": "2 38091   3.1149  70.7041 0012519 228.6209 177.2276  1.00276646 50523"
      },
      "geometry": {
        "type": "Point",
        "coordinates": [
          -111.4230255512094,
          0.09349909291261754
        ]
      }
    },
    {
      "type": "Feature",
      "properties": {
        "norad_id": 38250,
        "name": "BEIDOU-2 M3 (C11)",
        "group": "gnss",
        "lat": -6.792984706994886,
        "lon": 135.67482661251208,
        "alt_km": 21524.708916297,
        "timestamp": "2025-12-15T07:02:37.860844+00:00",
        "meta_object_name": "BEIDOU-2 M3 (C11)",
        "meta_object_id": "2012-018A",
        "meta_epoch": "2025-12-13T22:30:51.861600",
        "meta_mean_motion": 1.86229879,
        "meta_eccentricity": 0.00242907,
        "meta_inclination": 55.9188,
        "meta_ra_of_asc_node": 311.1166,
        "meta_arg_of_pericenter": 274.3199,
        "meta_mean_anomaly": 85.3911,
        "meta_ephemeris_type": 0,
        "meta_classification_type": "U",
        "meta_norad_cat_id": 38250,
        "meta_element_set_no": 999,
        "meta_rev_at_epoch": 9249,
        "meta_bstar": 0,
        "meta_mean_motion_dot": -9.6e-07,
        "meta_mean_motion_ddot": 0,
        "tle_line1": "1 38250U 12018A   25347.93810025 -.00000096  00000+0  00000+0 0  9993",
        "tle_line2": "2 38250  55.9188 311.1166 0024290 274.3199  85.3911  1.86229879 92490"
      },
      "geometry": {
        "type": "Point",
        "coordinates": [
          135.67482661251208,
          -6.792984706994886
        ]
      }
    },
    {
      "type": "Feature",
      "properties": {
        "norad_id": 38251,
        "name": "BEIDOU-2 M4 (C12)",
        "group": "gnss",
        "lat": -42.015866054728896,
        "lon": 168.0037839615061,
        "alt_km": 21501.827819727263,
        "timestamp": "2025-12-15T07:02:37.860856+00:00",
        "meta_object_name": "BEIDOU-2 M4 (C12)",
        "meta_object_id": "2012-018B",
        "meta_epoch": "2025-12-13T07:59:48.422112",
        "meta_mean_motion": 1.86229462,
        "meta_eccentricity": 0.00154528,
        "meta_inclination": 55.8208,
        "meta_ra_of_asc_node": 310.3658,
        "meta_arg_of_pericenter": 277.4494,
        "meta_mean_anomaly": 82.3644,
        "meta_ephemeris_type": 0,
        "meta_classification_type": "U",
        "meta_norad_cat_id": 38251,
        "meta_element_set_no": 999,
        "meta_rev_at_epoch": 9248,
        "meta_bstar": 0,
        "meta_mean_motion_dot": -9.5e-07,
        "meta_mean_motion_ddot": 0,
        "tle_line1": "1 38251U 12018B   25347.33319933 -.00000095  00000+0  00000+0 0  9999",
        "tle_line2": "2 38251  55.8208 310.3658 0015452 277.4494  82.3644  1.86229462 92489"
      },
      "geometry": {
        "type": "Point",
        "coordinates": [
          168.0037839615061,
          -42.015866054728896
        ]
      }
    },
    {
      "type": "Feature",
      "properties": {
        "norad_id": 38652,
        "name": "SES-5 (EGNOS/PRN 136)",
        "group": "gnss",
        "lat": -0.06878495763348406,
        "lon": -165.20010191557174,
        "alt_km": 35784.63439377999,
        "timestamp": "2025-12-15T07:02:37.860868+00:00",
        "meta_object_name": "SES-5 (EGNOS/PRN 136)",
        "meta_object_id": "2012-036A",
        "meta_epoch": "2025-12-14T22:09:38.644416",
        "meta_mean_motion": 1.00270103,
        "meta_eccentricity": 0.00019722,
        "meta_inclination": 0.0579,
        "meta_ra_of_asc_node": 304.8617,
        "meta_arg_of_pericenter": 326.8696,
        "meta_mean_anomaly": 149.4922,
        "meta_ephemeris_type": 0,
        "meta_classification_type": "U",
        "meta_norad_cat_id": 38652,
        "meta_element_set_no": 999,
        "meta_rev_at_epoch": 4260,
        "meta_bstar": 0,
        "meta_mean_motion_dot": 5.3e-07,
        "meta_mean_motion_ddot": 0,
        "tle_line1": "1 38652U 12036A   25348.92336394  .00000053  00000+0  00000+0 0  9993",
        "tle_line2": "2 38652   0.0579 304.8617 0001972 326.8696 149.4922  1.00270103 42602"
      },
      "geometry": {
        "type": "Point",
        "coordinates": [
          -165.20010191557174,
          -0.06878495763348406
        ]
      }
    },
    {
      "type": "Feature",
      "properties": {
        "norad_id": 38775,
        "name": "BEIDOU-2 M6 (C14)",
        "group": "gnss",
        "lat": 50.664784042565564,
        "lon": 123.15144306817128,
        "alt_km": 21518.86600881901,
        "timestamp": "2025-12-15T07:02:37.860879+00:00",
        "meta_object_name": "BEIDOU-2 M6 (C14)",
        "meta_object_id": "2012-050B",
        "meta_epoch": "2025-12-14T02:49:55.180128",
        "meta_mean_motion": 1.86230875,
        "meta_eccentricity": 0.0011244,
        "meta_inclination": 56.3796,
        "meta_ra_of_asc_node": 69.0216,
        "meta_arg_of_pericenter": 344.0149,
        "meta_mean_anomaly": 15.9678,
        "meta_ephemeris_type": 0,
        "meta_classification_type": "U",
        "meta_norad_cat_id": 38775,
        "meta_element_set_no": 999,
        "meta_rev_at_epoch": 8986,
        "meta_bstar": 0,
        "meta_mean_motion_dot": -8.2e-07,
        "meta_mean_motion_ddot": 0,
        "tle_line1": "1 38775U 12050B   25348.11799977 -.00000082  00000+0  00000+0 0  9999",
        "tle_line2": "2 38775  56.3796  69.0216 0011244 344.0149  15.9678  1.86230875 89866"
      },
      "geometry": {
        "type": "Point",
        "coordinates": [
          123.15144306817128,
          50.664784042565564
        ]
      }
    },
    {
      "type": "Feature",
      "properties": {
        "norad_id": 38779,
        "name": "GSAT-10 (GAGAN/PRN 128)",
        "group": "gnss",
        "lat": -0.00806270650615981,
        "lon": -87.12417387939317,
        "alt_km": 35794.34519150863,
        "timestamp": "2025-12-15T07:02:37.860891+00:00",
        "meta_object_name": "GSAT-10 (GAGAN/PRN 128)",
        "meta_object_id": "2012-051B",
        "meta_epoch": "2025-12-14T22:18:38.668608",
        "meta_mean_motion": 1.00272978,
        "meta_eccentricity": 0.00024851,
        "meta_inclination": 0.0844,
        "meta_ra_of_asc_node": 266.1106,
        "meta_arg_of_pericenter": 221.9664,
        "meta_mean_anomaly": 13.4366,
        "meta_ephemeris_type": 0,
        "meta_classification_type": "U",
        "meta_norad_cat_id": 38779,
        "meta_element_set_no": 999,
        "meta_rev_at_epoch": 4825,
        "meta_bstar": 0,
        "meta_mean_motion_dot": -1.45e-06,
        "meta_mean_motion_ddot": 0,
        "tle_line1": "1 38779U 12051B   25348.92961422 -.00000145  00000+0  00000+0 0  9999",
        "tle_line2": "2 38779   0.0844 266.1106 0002485 221.9664  13.4366  1.00272978 48251"
      },
      "geometry": {
        "type": "Point",
        "coordinates": [
          -87.12417387939317,
          -0.00806270650615981
        ]
      }
    },
    {
      "type": "Feature",
      "properties": {
        "norad_id": 38833,
        "name": "GPS BIIF-3  (PRN 24)",
        "group": "gnss",
        "lat": -28.702939646418002,
        "lon": 127.25185373473,
        "alt_km": 20264.670247873524,
        "timestamp": "2025-12-15T07:02:37.860903+00:00",
        "meta_object_name": "GPS BIIF-3  (PRN 24)",
        "meta_object_id": "2012-053A",
        "meta_epoch": "2025-12-13T20:21:34.724448",
        "meta_mean_motion": 2.00565042,
        "meta_eccentricity": 0.01758819,
        "meta_inclination": 53.5579,
        "meta_ra_of_asc_node": 151.1931,
        "meta_arg_of_pericenter": 64.0051,
        "meta_mean_anomaly": 297.7998,
        "meta_ephemeris_type": 0,
        "meta_classification_type": "U",
        "meta_norad_cat_id": 38833,
        "meta_element_set_no": 999,
        "meta_rev_at_epoch": 9572,
        "meta_bstar": 0,
        "meta_mean_motion_dot": 9.2e-07,
        "meta_mean_motion_ddot": 0,
        "tle_line1": "1 38833U 12053A   25347.84831857  .00000092  00000+0  00000+0 0  9990",
        "tle_line2": "2 38833  53.5579 151.1931 0175881  64.0051 297.7998  2.00565042 95726"
      },
      "geometry": {
        "type": "Point",
        "coordinates": [
          127.25185373473,
          -28.702939646418002
        ]
      }
    }
  ]
}